{"fetched_at":"2026-03-29T16:36:15Z","count":15609,"tles":[{"name":"STARLINK-5123","line1":"1 53979U 22125R   26087.84150695  .00000459  00000+0  46919-4 0  9996","line2":"2 53979  53.2168 133.1374 0001344  87.2833 272.8313 15.08839627192282","category":"Starlink"}]}