{
  "norad_id": 53979,
  "name": "STARLINK-5123",
  "history": [
    {
      "epoch": "2026-03-28T20:11:46.200480",
      "apogee_km": 540.6744307112549,
      "perigee_km": 538.8146274409792,
      "latitude_deg": 15.739275891614376,
      "longitude_deg": 18.684667199850082,
      "semi_major_axis_km": 6917.881529076117,
      "eccentricity": 0.00013442,
      "inclination_deg": 53.2168,
      "raan_deg": 133.1374,
      "arg_perigee_deg": 87.2833,
      "mean_anomaly_deg": 272.8313,
      "mean_motion_rev_day": 15.08839627
    }
  ]
}